{
    "117172280": {
        "icon": "/img/misc/missing_icon.png", 
        "placeDescription": "", 
        "placeHash": 117172280, 
        "placeName": ""
    }, 
    "596872852": {
        "icon": "/img/misc/missing_icon.png", 
        "placeDescription": "The ringed wonder hosts dozens of moons.", 
        "placeHash": 596872852, 
        "placeName": "Saturn"
    }, 
    "1259908504": {
        "icon": "/img/misc/missing_icon.png", 
        "placeDescription": "Sun-baked Mercury was transformed by the Traveler - and the Vex.", 
        "placeHash": 1259908504, 
        "placeName": "Mercury"
    }, 
    "2512485647": {
        "icon": "/img/misc/missing_icon.png", 
        "placeDescription": "", 
        "placeHash": 2512485647, 
        "placeName": "The Reef"
    }, 
    "2809578934": {
        "icon": "/img/misc/missing_icon.png", 
        "placeDescription": "The red world.", 
        "placeHash": 2809578934, 
        "placeName": "Mars"
    }, 
    "3114284952": {
        "icon": "/img/misc/missing_icon.png", 
        "placeDescription": "The larger of Mars's two moons.", 
        "placeHash": 3114284952, 
        "placeName": "Phobos"
    }, 
    "3128647858": {
        "icon": "/img/misc/missing_icon.png", 
        "placeDescription": "An ancient evil stirs beneath the surface of our Moon.", 
        "placeHash": 3128647858, 
        "placeName": "Earth's Moon"
    }, 
    "3747705955": {
        "icon": "/img/misc/missing_icon.png", 
        "placeDescription": "Mankind's cradle, full of shattered glory, ready to be reclaimed.", 
        "placeHash": 3747705955, 
        "placeName": "Earth"
    }, 
    "3871070152": {
        "icon": "/img/misc/missing_icon.png", 
        "placeDescription": "Venus was transformed from hell world to fecund jungle.", 
        "placeHash": 3871070152, 
        "placeName": "Venus"
    }, 
    "4088006058": {
        "icon": "/img/misc/missing_icon.png", 
        "placeDescription": "Hone your skills and win glory in battle against other Guardians.", 
        "placeHash": 4088006058, 
        "placeName": "The Crucible"
    }
}